ORBCOMM FM33            
1 25983U 99065D   24231.79218167  .00003929  00000+0  13284-2 0  9991
2 25983  45.0302 354.8350 0007872 327.5516  32.4848 14.38159667292501
ORBCOMM FM36            
1 25984U 99065E   24231.83876215  .00004657  00000+0  16324-2 0  9998
2 25984  45.0396  81.8141 0003418 207.8514 152.2151 14.36099817290920
ORBCOMM FM35            
1 25985U 99065F   24231.84486564  .00003212  00000+0  11539-2 0  9993
2 25985  45.0395  84.8055 0002943 327.3542  32.7124 14.35535613291312
ORBCOMM FM34            
1 25986U 99065G   24231.88661515  .00003033  00000+0  10928-2 0  9991
2 25986  45.0387  85.1589 0003246 264.4951  95.5526 14.35523916291431
ORBCOMM FM38            
1 33060U 08031A   24231.56122534  .00006348  00000+0  89147-3 0  9996
2 33060  48.4410 314.5560 0005289 193.0292 167.0486 14.78316751869917
ORBCOMM FM41            
1 33061U 08031B   24231.50855022  .00006252  00000+0  88424-3 0  9997
2 33061  48.4451 321.6662 0004204 179.5759 277.1679 14.78035976869417
ORBCOMM FM29            
1 33062U 08031C   24231.49941903  .00006128  00000+0  86811-3 0  9990
2 33062  48.4405 329.7405 0006027 174.2683 276.1149 14.77993639869323
ORBCOMM FM39            
1 33063U 08031D   24231.72162017  .00005722  00000+0  83352-3 0  9994
2 33063  48.4419 349.9947 0006744 147.5021 212.6309 14.76899645869042
