<?xml version="1.0" encoding="UTF-8"?>
<ndm xmlns:xsi="http://www.w3.org/2001/XMLSchema-instance" xsi:noNamespaceSchemaLocation="https://sanaregistry.org/r/ndmxml_unqualified/ndmxml-2.0.0-master-2.0.xsd">
<omm id="CCSDS_OMM_VERS" version="2.0">
<header><CREATION_DATE/><ORIGINATOR/></header><body><segment><metadata><OBJECT_NAME>ORBCOMM FM33</OBJECT_NAME><OBJECT_ID>1999-065D</OBJECT_ID><CENTER_NAME>EARTH</CENTER_NAME><REF_FRAME>TEME</REF_FRAME><TIME_SYSTEM>UTC</TIME_SYSTEM><MEAN_ELEMENT_THEORY>SGP4</MEAN_ELEMENT_THEORY></metadata><data><meanElements><EPOCH>2024-08-18T19:00:44.496288</EPOCH><MEAN_MOTION>14.38159667</MEAN_MOTION><ECCENTRICITY>.0007872</ECCENTRICITY><INCLINATION>45.0302</INCLINATION><RA_OF_ASC_NODE>354.8350</RA_OF_ASC_NODE><ARG_OF_PERICENTER>327.5516</ARG_OF_PERICENTER><MEAN_ANOMALY>32.4848</MEAN_ANOMALY></meanElements><tleParameters><EPHEMERIS_TYPE>0</EPHEMERIS_TYPE><CLASSIFICATION_TYPE>U</CLASSIFICATION_TYPE><NORAD_CAT_ID>25983</NORAD_CAT_ID><ELEMENT_SET_NO>999</ELEMENT_SET_NO><REV_AT_EPOCH>29250</REV_AT_EPOCH><BSTAR>.13284E-2</BSTAR><MEAN_MOTION_DOT>.3929E-4</MEAN_MOTION_DOT><MEAN_MOTION_DDOT>0</MEAN_MOTION_DDOT></tleParameters></data></segment></body></omm>
<omm id="CCSDS_OMM_VERS" version="2.0">
<header><CREATION_DATE/><ORIGINATOR/></header><body><segment><metadata><OBJECT_NAME>ORBCOMM FM36</OBJECT_NAME><OBJECT_ID>1999-065E</OBJECT_ID><CENTER_NAME>EARTH</CENTER_NAME><REF_FRAME>TEME</REF_FRAME><TIME_SYSTEM>UTC</TIME_SYSTEM><MEAN_ELEMENT_THEORY>SGP4</MEAN_ELEMENT_THEORY></metadata><data><meanElements><EPOCH>2024-08-18T20:07:49.049760</EPOCH><MEAN_MOTION>14.36099817</MEAN_MOTION><ECCENTRICITY>.0003418</ECCENTRICITY><INCLINATION>45.0396</INCLINATION><RA_OF_ASC_NODE>81.8141</RA_OF_ASC_NODE><ARG_OF_PERICENTER>207.8514</ARG_OF_PERICENTER><MEAN_ANOMALY>152.2151</MEAN_ANOMALY></meanElements><tleParameters><EPHEMERIS_TYPE>0</EPHEMERIS_TYPE><CLASSIFICATION_TYPE>U</CLASSIFICATION_TYPE><NORAD_CAT_ID>25984</NORAD_CAT_ID><ELEMENT_SET_NO>999</ELEMENT_SET_NO><REV_AT_EPOCH>29092</REV_AT_EPOCH><BSTAR>.16324E-2</BSTAR><MEAN_MOTION_DOT>.4657E-4</MEAN_MOTION_DOT><MEAN_MOTION_DDOT>0</MEAN_MOTION_DDOT></tleParameters></data></segment></body></omm>
<omm id="CCSDS_OMM_VERS" version="2.0">
<header><CREATION_DATE/><ORIGINATOR/></header><body><segment><metadata><OBJECT_NAME>ORBCOMM FM35</OBJECT_NAME><OBJECT_ID>1999-065F</OBJECT_ID><CENTER_NAME>EARTH</CENTER_NAME><REF_FRAME>TEME</REF_FRAME><TIME_SYSTEM>UTC</TIME_SYSTEM><MEAN_ELEMENT_THEORY>SGP4</MEAN_ELEMENT_THEORY></metadata><data><meanElements><EPOCH>2024-08-18T20:16:36.391296</EPOCH><MEAN_MOTION>14.35535613</MEAN_MOTION><ECCENTRICITY>.0002943</ECCENTRICITY><INCLINATION>45.0395</INCLINATION><RA_OF_ASC_NODE>84.8055</RA_OF_ASC_NODE><ARG_OF_PERICENTER>327.3542</ARG_OF_PERICENTER><MEAN_ANOMALY>32.7124</MEAN_ANOMALY></meanElements><tleParameters><EPHEMERIS_TYPE>0</EPHEMERIS_TYPE><CLASSIFICATION_TYPE>U</CLASSIFICATION_TYPE><NORAD_CAT_ID>25985</NORAD_CAT_ID><ELEMENT_SET_NO>999</ELEMENT_SET_NO><REV_AT_EPOCH>29131</REV_AT_EPOCH><BSTAR>.11539E-2</BSTAR><MEAN_MOTION_DOT>.3212E-4</MEAN_MOTION_DOT><MEAN_MOTION_DDOT>0</MEAN_MOTION_DDOT></tleParameters></data></segment></body></omm>
<omm id="CCSDS_OMM_VERS" version="2.0">
<header><CREATION_DATE/><ORIGINATOR/></header><body><segment><metadata><OBJECT_NAME>ORBCOMM FM34</OBJECT_NAME><OBJECT_ID>1999-065G</OBJECT_ID><CENTER_NAME>EARTH</CENTER_NAME><REF_FRAME>TEME</REF_FRAME><TIME_SYSTEM>UTC</TIME_SYSTEM><MEAN_ELEMENT_THEORY>SGP4</MEAN_ELEMENT_THEORY></metadata><data><meanElements><EPOCH>2024-08-18T21:16:43.548960</EPOCH><MEAN_MOTION>14.35523916</MEAN_MOTION><ECCENTRICITY>.0003246</ECCENTRICITY><INCLINATION>45.0387</INCLINATION><RA_OF_ASC_NODE>85.1589</RA_OF_ASC_NODE><ARG_OF_PERICENTER>264.4951</ARG_OF_PERICENTER><MEAN_ANOMALY>95.5526</MEAN_ANOMALY></meanElements><tleParameters><EPHEMERIS_TYPE>0</EPHEMERIS_TYPE><CLASSIFICATION_TYPE>U</CLASSIFICATION_TYPE><NORAD_CAT_ID>25986</NORAD_CAT_ID><ELEMENT_SET_NO>999</ELEMENT_SET_NO><REV_AT_EPOCH>29143</REV_AT_EPOCH><BSTAR>.10928E-2</BSTAR><MEAN_MOTION_DOT>.3033E-4</MEAN_MOTION_DOT><MEAN_MOTION_DDOT>0</MEAN_MOTION_DDOT></tleParameters></data></segment></body></omm>
<omm id="CCSDS_OMM_VERS" version="2.0">
<header><CREATION_DATE/><ORIGINATOR/></header><body><segment><metadata><OBJECT_NAME>ORBCOMM FM38</OBJECT_NAME><OBJECT_ID>2008-031A</OBJECT_ID><CENTER_NAME>EARTH</CENTER_NAME><REF_FRAME>TEME</REF_FRAME><TIME_SYSTEM>UTC</TIME_SYSTEM><MEAN_ELEMENT_THEORY>SGP4</MEAN_ELEMENT_THEORY></metadata><data><meanElements><EPOCH>2024-08-18T13:28:09.869376</EPOCH><MEAN_MOTION>14.78316751</MEAN_MOTION><ECCENTRICITY>.0005289</ECCENTRICITY><INCLINATION>48.4410</INCLINATION><RA_OF_ASC_NODE>314.5560</RA_OF_ASC_NODE><ARG_OF_PERICENTER>193.0292</ARG_OF_PERICENTER><MEAN_ANOMALY>167.0486</MEAN_ANOMALY></meanElements><tleParameters><EPHEMERIS_TYPE>0</EPHEMERIS_TYPE><CLASSIFICATION_TYPE>U</CLASSIFICATION_TYPE><NORAD_CAT_ID>33060</NORAD_CAT_ID><ELEMENT_SET_NO>999</ELEMENT_SET_NO><REV_AT_EPOCH>86991</REV_AT_EPOCH><BSTAR>.89147E-3</BSTAR><MEAN_MOTION_DOT>.6348E-4</MEAN_MOTION_DOT><MEAN_MOTION_DDOT>0</MEAN_MOTION_DDOT></tleParameters></data></segment></body></omm>
<omm id="CCSDS_OMM_VERS" version="2.0">
<header><CREATION_DATE/><ORIGINATOR/></header><body><segment><metadata><OBJECT_NAME>ORBCOMM FM41</OBJECT_NAME><OBJECT_ID>2008-031B</OBJECT_ID><CENTER_NAME>EARTH</CENTER_NAME><REF_FRAME>TEME</REF_FRAME><TIME_SYSTEM>UTC</TIME_SYSTEM><MEAN_ELEMENT_THEORY>SGP4</MEAN_ELEMENT_THEORY></metadata><data><meanElements><EPOCH>2024-08-18T12:12:18.739008</EPOCH><MEAN_MOTION>14.78035976</MEAN_MOTION><ECCENTRICITY>.0004204</ECCENTRICITY><INCLINATION>48.4451</INCLINATION><RA_OF_ASC_NODE>321.6662</RA_OF_ASC_NODE><ARG_OF_PERICENTER>179.5759</ARG_OF_PERICENTER><MEAN_ANOMALY>277.1679</MEAN_ANOMALY></meanElements><tleParameters><EPHEMERIS_TYPE>0</EPHEMERIS_TYPE><CLASSIFICATION_TYPE>U</CLASSIFICATION_TYPE><NORAD_CAT_ID>33061</NORAD_CAT_ID><ELEMENT_SET_NO>999</ELEMENT_SET_NO><REV_AT_EPOCH>86941</REV_AT_EPOCH><BSTAR>.88424E-3</BSTAR><MEAN_MOTION_DOT>.6252E-4</MEAN_MOTION_DOT><MEAN_MOTION_DDOT>0</MEAN_MOTION_DDOT></tleParameters></data></segment></body></omm>
<omm id="CCSDS_OMM_VERS" version="2.0">
<header><CREATION_DATE/><ORIGINATOR/></header><body><segment><metadata><OBJECT_NAME>ORBCOMM FM29</OBJECT_NAME><OBJECT_ID>2008-031C</OBJECT_ID><CENTER_NAME>EARTH</CENTER_NAME><REF_FRAME>TEME</REF_FRAME><TIME_SYSTEM>UTC</TIME_SYSTEM><MEAN_ELEMENT_THEORY>SGP4</MEAN_ELEMENT_THEORY></metadata><data><meanElements><EPOCH>2024-08-18T11:59:09.804192</EPOCH><MEAN_MOTION>14.77993639</MEAN_MOTION><ECCENTRICITY>.0006027</ECCENTRICITY><INCLINATION>48.4405</INCLINATION><RA_OF_ASC_NODE>329.7405</RA_OF_ASC_NODE><ARG_OF_PERICENTER>174.2683</ARG_OF_PERICENTER><MEAN_ANOMALY>276.1149</MEAN_ANOMALY></meanElements><tleParameters><EPHEMERIS_TYPE>0</EPHEMERIS_TYPE><CLASSIFICATION_TYPE>U</CLASSIFICATION_TYPE><NORAD_CAT_ID>33062</NORAD_CAT_ID><ELEMENT_SET_NO>999</ELEMENT_SET_NO><REV_AT_EPOCH>86932</REV_AT_EPOCH><BSTAR>.86811E-3</BSTAR><MEAN_MOTION_DOT>.6128E-4</MEAN_MOTION_DOT><MEAN_MOTION_DDOT>0</MEAN_MOTION_DDOT></tleParameters></data></segment></body></omm>
<omm id="CCSDS_OMM_VERS" version="2.0">
<header><CREATION_DATE/><ORIGINATOR/></header><body><segment><metadata><OBJECT_NAME>ORBCOMM FM39</OBJECT_NAME><OBJECT_ID>2008-031D</OBJECT_ID><CENTER_NAME>EARTH</CENTER_NAME><REF_FRAME>TEME</REF_FRAME><TIME_SYSTEM>UTC</TIME_SYSTEM><MEAN_ELEMENT_THEORY>SGP4</MEAN_ELEMENT_THEORY></metadata><data><meanElements><EPOCH>2024-08-18T17:19:07.982688</EPOCH><MEAN_MOTION>14.76899645</MEAN_MOTION><ECCENTRICITY>.0006744</ECCENTRICITY><INCLINATION>48.4419</INCLINATION><RA_OF_ASC_NODE>349.9947</RA_OF_ASC_NODE><ARG_OF_PERICENTER>147.5021</ARG_OF_PERICENTER><MEAN_ANOMALY>212.6309</MEAN_ANOMALY></meanElements><tleParameters><EPHEMERIS_TYPE>0</EPHEMERIS_TYPE><CLASSIFICATION_TYPE>U</CLASSIFICATION_TYPE><NORAD_CAT_ID>33063</NORAD_CAT_ID><ELEMENT_SET_NO>999</ELEMENT_SET_NO><REV_AT_EPOCH>86904</REV_AT_EPOCH><BSTAR>.83352E-3</BSTAR><MEAN_MOTION_DOT>.5722E-4</MEAN_MOTION_DOT><MEAN_MOTION_DDOT>0</MEAN_MOTION_DDOT></tleParameters></data></segment></body></omm>

</ndm>
